start=new Date('2021-10-18T00:00:00.000Z').valueOf();
sats=[{"REF_FRAME":"TEME","TIME_SYSTEM":"UTC","BSTAR":"-0.00003814800000","TLE_LINE1":"1 48296U 21036W   21290.14969211 -.00000849  00000-0 -38148-4 0  9999","CENTER_NAME":"EARTH","PERIOD":"95.593","TLE_LINE2":"2 48296  53.0565  84.6827 0001509  96.1752 263.9409 15.06386470 26477","SITE":"AFETR","SEMIMAJOR_AXIS":"6925.390","MEAN_MOTION_DDOT":"0.0000000000000","REV_AT_EPOCH":"2647","RA_OF_ASC_NODE":"84.6827","OBJECT_TYPE":"PAYLOAD","ELEMENT_SET_NO":"999","RCS_SIZE":"LARGE","MEAN_ELEMENT_THEORY":"SGP4","GP_ID":"187445871","PERIAPSIS":"546.210","NORAD_CAT_ID":"48296","MEAN_MOTION":"15.06386470","MEAN_ANOMALY":"263.9409","EPHEMERIS_TYPE":"0","MEAN_MOTION_DOT":"-0.00000849","DECAY_DATE":null,"ARG_OF_PERICENTER":"96.1752","FILE":"3168566","APOAPSIS":"548.300","EPOCH":"2021-10-17T03:35:33.398304","ECCENTRICITY":"0.00015090","OBJECT_ID":"2021-036W","CLASSIFICATION_TYPE":"U","INCLINATION":"53.0565","COUNTRY_CODE":"US","OBJECT_NAME":"STARLINK-2546","LAUNCH_DATE":"2021-04-29"},{"SEMIMAJOR_AXIS":"6925.385","TLE_LINE2":"2 48297  53.0572  84.6995 0001758  88.8770 271.2421 15.06388036 26472","CENTER_NAME":"EARTH","PERIOD":"95.593","SITE":"AFETR","TIME_SYSTEM":"UTC","REF_FRAME":"TEME","TLE_LINE1":"1 48297U 21036X   21290.14600464 -.00000987  00000-0 -47360-4 0  9991","BSTAR":"-0.00004736000000","ELEMENT_SET_NO":"999","RCS_SIZE":"LARGE","OBJECT_TYPE":"PAYLOAD","RA_OF_ASC_NODE":"84.6995","MEAN_MOTION_DDOT":"0.0000000000000","REV_AT_EPOCH":"2647","EPOCH":"2021-10-17T03:30:14.800896","ECCENTRICITY":"0.00017580","APOAPSIS":"548.468","OBJECT_ID":"2021-036X","MEAN_MOTION_DOT":"-0.00000987","MEAN_ANOMALY":"271.2421","EPHEMERIS_TYPE":"0","ARG_OF_PERICENTER":"88.8770","FILE":"3168566","DECAY_DATE":null,"MEAN_MOTION":"15.06388036","GP_ID":"187444619","NORAD_CAT_ID":"48297","PERIAPSIS":"546.033","MEAN_ELEMENT_THEORY":"SGP4","LAUNCH_DATE":"2021-04-29","OBJECT_NAME":"STARLINK-2544","COUNTRY_CODE":"US","CLASSIFICATION_TYPE":"U","INCLINATION":"53.0572"},{"LAUNCH_DATE":"2021-04-29","OBJECT_NAME":"STARLINK-2559","COUNTRY_CODE":"US","INCLINATION":"53.0566","CLASSIFICATION_TYPE":"U","OBJECT_ID":"2021-036Y","ECCENTRICITY":"0.00013620","EPOCH":"2021-10-17T03:24:56.413440","APOAPSIS":"548.191","ARG_OF_PERICENTER":"93.0139","FILE":"3168566","DECAY_DATE":null,"MEAN_MOTION_DOT":"-0.00000937","MEAN_ANOMALY":"267.1006","EPHEMERIS_TYPE":"0","MEAN_MOTION":"15.06388994","GP_ID":"187444869","PERIAPSIS":"546.304","NORAD_CAT_ID":"48298","MEAN_ELEMENT_THEORY":"SGP4","RCS_SIZE":"LARGE","ELEMENT_SET_NO":"999","OBJECT_TYPE":"PAYLOAD","RA_OF_ASC_NODE":"84.7153","REV_AT_EPOCH":"2647","MEAN_MOTION_DDOT":"0.0000000000000","SEMIMAJOR_AXIS":"6925.382","SITE":"AFETR","TLE_LINE2":"2 48298  53.0566  84.7153 0001362  93.0139 267.1006 15.06388994 26477","PERIOD":"95.593","CENTER_NAME":"EARTH","TLE_LINE1":"1 48298U 21036Y   21290.14231960 -.00000937  00000-0 -44035-4 0  9994","BSTAR":"-0.00004403500000","TIME_SYSTEM":"UTC","REF_FRAME":"TEME"},{"SEMIMAJOR_AXIS":"6925.409","CENTER_NAME":"EARTH","PERIOD":"95.593","TLE_LINE2":"2 48299  53.0579  84.7152 0001571 104.4390 255.6774 15.06380245 26474","SITE":"AFETR","REF_FRAME":"TEME","TIME_SYSTEM":"UTC","BSTAR":"0.00007288700000","TLE_LINE1":"1 48299U 21036Z   21290.13865151  .00000804  00000-0  72887-4 0  9996","ELEMENT_SET_NO":"999","RCS_SIZE":"LARGE","RA_OF_ASC_NODE":"84.7152","OBJECT_TYPE":"PAYLOAD","MEAN_MOTION_DDOT":"0.0000000000000","REV_AT_EPOCH":"2647","APOAPSIS":"548.362","ECCENTRICITY":"0.00015710","EPOCH":"2021-10-17T03:19:39.490464","OBJECT_ID":"2021-036Z","MEAN_ANOMALY":"255.6774","EPHEMERIS_TYPE":"0","MEAN_MOTION_DOT":"0.00000804","DECAY_DATE":null,"FILE":"3168566","ARG_OF_PERICENTER":"104.4390","MEAN_MOTION":"15.06380245","PERIAPSIS":"546.186","GP_ID":"187445621","MEAN_ELEMENT_THEORY":"SGP4","NORAD_CAT_ID":"48299","LAUNCH_DATE":"2021-04-29","COUNTRY_CODE":"US","OBJECT_NAME":"STARLINK-2557","CLASSIFICATION_TYPE":"U","INCLINATION":"53.0579"},{"SEMIMAJOR_AXIS":"6925.355","TIME_SYSTEM":"UTC","REF_FRAME":"TEME","TLE_LINE1":"1 48300U 21036AA  21290.19668351  .00000531  00000-0  54544-4 0  9995","BSTAR":"0.00005454400000","TLE_LINE2":"2 48300  53.0588  94.4618 0001931  86.7256 273.3954 15.06397871 26341","PERIOD":"95.592","CENTER_NAME":"EARTH","SITE":"AFETR","ELEMENT_SET_NO":"999","RCS_SIZE":"LARGE","MEAN_MOTION_DDOT":"0.0000000000000","REV_AT_EPOCH":"2634","OBJECT_TYPE":"PAYLOAD","RA_OF_ASC_NODE":"94.4618","MEAN_MOTION_DOT":"0.00000531","EPHEMERIS_TYPE":"0","MEAN_ANOMALY":"273.3954","ARG_OF_PERICENTER":"86.7256","FILE":"3168566","DECAY_DATE":null,"EPOCH":"2021-10-17T04:43:13.455264","ECCENTRICITY":"0.00019310","APOAPSIS":"548.557","OBJECT_ID":"2021-036AA","PERIAPSIS":"545.883","GP_ID":"187445372","NORAD_CAT_ID":"48300","MEAN_ELEMENT_THEORY":"SGP4","MEAN_MOTION":"15.06397871","OBJECT_NAME":"STARLINK-2538","COUNTRY_CODE":"US","LAUNCH_DATE":"2021-04-29","CLASSIFICATION_TYPE":"U","INCLINATION":"53.0588"},{"SEMIMAJOR_AXIS":"6925.346","TLE_LINE2":"2 48301  53.0537  94.4767 0001776  83.6551 276.4640 15.06400721 26336","PERIOD":"95.592","CENTER_NAME":"EARTH","SITE":"AFETR","TIME_SYSTEM":"UTC","REF_FRAME":"TEME","TLE_LINE1":"1 48301U 21036AB  21290.19299677  .00001452  00000-0  11633-3 0  9991","BSTAR":"0.00011633000000","ELEMENT_SET_NO":"999","RCS_SIZE":"LARGE","OBJECT_TYPE":"PAYLOAD","RA_OF_ASC_NODE":"94.4767","MEAN_MOTION_DDOT":"0.0000000000000","REV_AT_EPOCH":"2633","ECCENTRICITY":"0.00017760","EPOCH":"2021-10-17T04:37:54.920928","APOAPSIS":"548.441","OBJECT_ID":"2021-036AB","MEAN_MOTION_DOT":"0.00001452","MEAN_ANOMALY":"276.4640","EPHEMERIS_TYPE":"0","FILE":"3168566","ARG_OF_PERICENTER":"83.6551","DECAY_DATE":null,"MEAN_MOTION":"15.06400721","GP_ID":"187444120","PERIAPSIS":"545.981","NORAD_CAT_ID":"48301","MEAN_ELEMENT_THEORY":"SGP4","LAUNCH_DATE":"2021-04-29","OBJECT_NAME":"STARLINK-2537","COUNTRY_CODE":"US","CLASSIFICATION_TYPE":"U","INCLINATION":"53.0537"},{"OBJECT_TYPE":"PAYLOAD","RA_OF_ASC_NODE":"94.4883","MEAN_MOTION_DDOT":"0.0000000000000","REV_AT_EPOCH":"2633","ELEMENT_SET_NO":"999","RCS_SIZE":"LARGE","TLE_LINE2":"2 48302  53.0561  94.4883 0001432  72.7348 287.3798 15.06392574 26336","PERIOD":"95.593","CENTER_NAME":"EARTH","SITE":"AFETR","TIME_SYSTEM":"UTC","REF_FRAME":"TEME","TLE_LINE1":"1 48302U 21036AC  21290.18931787  .00000540  00000-0  55133-4 0  9997","BSTAR":"0.00005513300000","SEMIMAJOR_AXIS":"6925.371","CLASSIFICATION_TYPE":"U","INCLINATION":"53.0561","LAUNCH_DATE":"2021-04-29","OBJECT_NAME":"STARLINK-2556","COUNTRY_CODE":"US","MEAN_MOTION":"15.06392574","MEAN_ELEMENT_THEORY":"SGP4","GP_ID":"187444370","PERIAPSIS":"546.245","NORAD_CAT_ID":"48302","ECCENTRICITY":"0.00014320","EPOCH":"2021-10-17T04:32:37.063968","APOAPSIS":"548.228","OBJECT_ID":"2021-036AC","MEAN_MOTION_DOT":"0.00000540","MEAN_ANOMALY":"287.3798","EPHEMERIS_TYPE":"0","ARG_OF_PERICENTER":"72.7348","FILE":"3168566","DECAY_DATE":null},{"OBJECT_TYPE":"PAYLOAD","RA_OF_ASC_NODE":"94.5058","MEAN_MOTION_DDOT":"0.0000000000000","REV_AT_EPOCH":"2633","ELEMENT_SET_NO":"999","RCS_SIZE":"LARGE","CENTER_NAME":"EARTH","PERIOD":"95.593","TLE_LINE2":"2 48303  53.0540  94.5058 0001942  86.4208 273.7003 15.06392457 26330","SITE":"AFETR","REF_FRAME":"TEME","TIME_SYSTEM":"UTC","BSTAR":"0.00006691300000","TLE_LINE1":"1 48303U 21036AD  21290.18563370  .00000715  00000-0  66913-4 0  9999","SEMIMAJOR_AXIS":"6925.372","CLASSIFICATION_TYPE":"U","INCLINATION":"53.0540","LAUNCH_DATE":"2021-04-29","COUNTRY_CODE":"US","OBJECT_NAME":"STARLINK-2530","MEAN_MOTION":"15.06392457","GP_ID":"187445122","MEAN_ELEMENT_THEORY":"SGP4","PERIAPSIS":"545.892","NORAD_CAT_ID":"48303","APOAPSIS":"548.582","EPOCH":"2021-10-17T04:27:18.751680","ECCENTRICITY":"0.00019420","OBJECT_ID":"2021-036AD","MEAN_ANOMALY":"273.7003","EPHEMERIS_TYPE":"0","MEAN_MOTION_DOT":"0.00000715","DECAY_DATE":null,"FILE":"3168566","ARG_OF_PERICENTER":"86.4208"},{"RCS_SIZE":"LARGE","ELEMENT_SET_NO":"999","OBJECT_TYPE":"PAYLOAD","RA_OF_ASC_NODE":"93.3359","REV_AT_EPOCH":"2637","MEAN_MOTION_DDOT":"0.0000000000000","SEMIMAJOR_AXIS":"6925.405","SITE":"AFETR","TLE_LINE2":"2 48304  53.0552  93.3359 0001800  73.8752 286.2435 15.06381527 26370","PERIOD":"95.593","CENTER_NAME":"EARTH","TLE_LINE1":"1 48304U 21036AE  21290.44734111  .00000290  00000-0  38415-4 0  9996","BSTAR":"0.00003841500000","TIME_SYSTEM":"UTC","REF_FRAME":"TEME","LAUNCH_DATE":"2021-04-29","OBJECT_NAME":"STARLINK-2524","COUNTRY_CODE":"US","INCLINATION":"53.0552","CLASSIFICATION_TYPE":"U","OBJECT_ID":"2021-036AE","ECCENTRICITY":"0.00018000","EPOCH":"2021-10-17T10:44:10.271904","APOAPSIS":"548.517","FILE":"3168566","ARG_OF_PERICENTER":"73.8752","DECAY_DATE":null,"MEAN_MOTION_DOT":"0.00000290","MEAN_ANOMALY":"286.2435","EPHEMERIS_TYPE":"0","MEAN_MOTION":"15.06381527","NORAD_CAT_ID":"48304","GP_ID":"187445872","PERIAPSIS":"546.024","MEAN_ELEMENT_THEORY":"SGP4"},{"RA_OF_ASC_NODE":"94.5382","OBJECT_TYPE":"PAYLOAD","MEAN_MOTION_DDOT":"0.0000000000000","REV_AT_EPOCH":"2633","ELEMENT_SET_NO":"999","RCS_SIZE":"LARGE","CENTER_NAME":"EARTH","PERIOD":"95.592","TLE_LINE2":"2 48305  53.0550  94.5382 0002093  90.2258 269.8971 15.06397584 26335","SITE":"AFETR","REF_FRAME":"TEME","TIME_SYSTEM":"UTC","BSTAR":"0.00009392900000","TLE_LINE1":"1 48305U 21036AF  21290.17825597  .00001118  00000-0  93929-4 0  9997","SEMIMAJOR_AXIS":"6925.356","CLASSIFICATION_TYPE":"U","INCLINATION":"53.0550","LAUNCH_DATE":"2021-04-29","COUNTRY_CODE":"US","OBJECT_NAME":"STARLINK-2519","MEAN_MOTION":"15.06397584","GP_ID":"187444620","PERIAPSIS":"545.771","NORAD_CAT_ID":"48305","MEAN_ELEMENT_THEORY":"SGP4","APOAPSIS":"548.670","EPOCH":"2021-10-17T04:16:41.315808","ECCENTRICITY":"0.00020930","OBJECT_ID":"2021-036AF","EPHEMERIS_TYPE":"0","MEAN_ANOMALY":"269.8971","MEAN_MOTION_DOT":"0.00001118","DECAY_DATE":null,"FILE":"3168566","ARG_OF_PERICENTER":"90.2258"}];
